ONEWEB-0211             
1 48767U 21045A   26078.25921933  .00002876  00000+0  75339-2 0  9992
2 48767  87.8935 277.0532 0002345  87.1913 272.9486 13.16172460232616
ONEWEB-0223             
1 48768U 21045B   26078.29350936  .00000128  00000+0  30463-3 0  9994
2 48768  87.8936 277.1316 0002117  97.3683 262.7688 13.15548396232584
ONEWEB-0230             
1 48769U 21045C   26078.26498729 -.00000084  00000+0 -25713-3 0  9990
2 48769  87.8931 277.1590 0001562  91.9106 268.2204 13.15548630232842
ONEWEB-0237             
1 48770U 21045D   26078.25389335  .00000008  00000+0 -11802-4 0  9993
2 48770  87.8927 277.1632 0001827  98.5954 261.5383 13.15548807232563
ONEWEB-0235             
1 48771U 21045E   26078.07642619  .00000189  00000+0  46821-3 0  9998
2 48771  87.8938 277.1759 0002041 100.1675 259.9685 13.15548620232531
ONEWEB-0242             
1 48772U 21045F   26078.29825749  .00000128  00000+0  30478-3 0  9994
2 48772  87.8938 277.1270 0001676  97.5548 262.5773 13.15548836232606
ONEWEB-0241             
1 48773U 21045G   26078.28558509  .00000059  00000+0  12347-3 0  9999
2 48773  87.8926 277.1580 0002115  92.4928 267.6445 13.15549009232518
ONEWEB-0243             
1 48774U 21045H   26078.24120979  .00000155  00000+0  37843-3 0  9997
2 48774  87.8930 277.1783 0001805 109.8698 250.2627 13.15547501232538
ONEWEB-0222             
1 48775U 21045J   26078.30064356  .00000100  00000+0  23271-3 0  9991
2 48775  87.8934 277.1271 0001832  93.2602 266.8737 13.15548762232586
ONEWEB-0244             
1 48776U 21045K   26078.25072567  .00000079  00000+0  17497-3 0  9997
2 48776  87.8937 277.1275 0001764  95.7720 264.3612 13.15548804233141
ONEWEB-0247             
1 48777U 21045L   26078.24756133  .00000041  00000+0  75800-4 0  9997
2 48777  87.8929 277.1719 0002195 112.4389 247.6974 13.15549025232581
ONEWEB-0245             
1 48778U 21045M   26078.24279854  .00000169  00000+0  41532-3 0  9993
2 48778  87.8937 277.1436 0001867  88.7395 271.3949 13.15549159232555
ONEWEB-0229             
1 48779U 21045N   26078.23804750  .00000206  00000+0  51266-3 0  9999
2 48779  87.8936 277.1430 0001650  96.5608 263.5710 13.15548950232583
ONEWEB-0228             
1 48780U 21045P   26078.27146973 -.00000098  00000+0 -29434-3 0  9994
2 48780  87.8938 277.1232 0001744  93.8202 266.3127 13.15547658232500
ONEWEB-0232             
1 48781U 21045Q   26078.24597119  .00000150  00000+0  36512-3 0  9996
2 48781  87.8949 277.1287 0001667  91.8788 268.2534 13.15548097232820
ONEWEB-0231             
1 48782U 21045R   26078.29984684  .00000166  00000+0  40747-3 0  9991
2 48782  87.8928 277.1431 0001899  95.0140 265.1207 13.15549056232520
ONEWEB-0234             
1 48783U 21045S   26078.26166225 -.00000090  00000+0 -27267-3 0  9992
2 48783  87.8930 277.1283 0002060  67.8534 292.2815 13.15546527232654
