[{"OBJECT_NAME":"ONEWEB-0211","OBJECT_ID":"2021-045A","EPOCH":"2026-03-19T06:13:16.550112","MEAN_MOTION":13.1617246,"ECCENTRICITY":0.00023458,"INCLINATION":87.8935,"RA_OF_ASC_NODE":277.0532,"ARG_OF_PERICENTER":87.1913,"MEAN_ANOMALY":272.9486,"EPHEMERIS_TYPE":0,"CLASSIFICATION_TYPE":"U","NORAD_CAT_ID":48767,"ELEMENT_SET_NO":999,"REV_AT_EPOCH":23261,"BSTAR":0.0075339408,"MEAN_MOTION_DOT":2.876e-5,"MEAN_MOTION_DDOT":0},{"OBJECT_NAME":"ONEWEB-0223","OBJECT_ID":"2021-045B","EPOCH":"2026-03-19T07:02:39.208704","MEAN_MOTION":13.15548396,"ECCENTRICITY":0.0002117,"INCLINATION":87.8936,"RA_OF_ASC_NODE":277.1316,"ARG_OF_PERICENTER":97.3683,"MEAN_ANOMALY":262.7688,"EPHEMERIS_TYPE":0,"CLASSIFICATION_TYPE":"U","NORAD_CAT_ID":48768,"ELEMENT_SET_NO":999,"REV_AT_EPOCH":23258,"BSTAR":0.00030463194,"MEAN_MOTION_DOT":1.28e-6,"MEAN_MOTION_DDOT":0},{"OBJECT_NAME":"ONEWEB-0230","OBJECT_ID":"2021-045C","EPOCH":"2026-03-19T06:21:34.901856","MEAN_MOTION":13.1554863,"ECCENTRICITY":0.00015623,"INCLINATION":87.8931,"RA_OF_ASC_NODE":277.159,"ARG_OF_PERICENTER":91.9106,"MEAN_ANOMALY":268.2204,"EPHEMERIS_TYPE":0,"CLASSIFICATION_TYPE":"U","NORAD_CAT_ID":48769,"ELEMENT_SET_NO":999,"REV_AT_EPOCH":23284,"BSTAR":-0.00025712897,"MEAN_MOTION_DOT":-8.4e-7,"MEAN_MOTION_DDOT":0},{"OBJECT_NAME":"ONEWEB-0237","OBJECT_ID":"2021-045D","EPOCH":"2026-03-19T06:05:36.385440","MEAN_MOTION":13.15548807,"ECCENTRICITY":0.00018271,"INCLINATION":87.8927,"RA_OF_ASC_NODE":277.1632,"ARG_OF_PERICENTER":98.5954,"MEAN_ANOMALY":261.5383,"EPHEMERIS_TYPE":0,"CLASSIFICATION_TYPE":"U","NORAD_CAT_ID":48770,"ELEMENT_SET_NO":999,"REV_AT_EPOCH":23256,"BSTAR":-1.1802076e-5,"MEAN_MOTION_DOT":8.0e-8,"MEAN_MOTION_DDOT":0},{"OBJECT_NAME":"ONEWEB-0235","OBJECT_ID":"2021-045E","EPOCH":"2026-03-19T01:50:03.222816","MEAN_MOTION":13.1554862,"ECCENTRICITY":0.00020412,"INCLINATION":87.8938,"RA_OF_ASC_NODE":277.1759,"ARG_OF_PERICENTER":100.1675,"MEAN_ANOMALY":259.9685,"EPHEMERIS_TYPE":0,"CLASSIFICATION_TYPE":"U","NORAD_CAT_ID":48771,"ELEMENT_SET_NO":999,"REV_AT_EPOCH":23253,"BSTAR":0.00046820642,"MEAN_MOTION_DOT":1.89e-6,"MEAN_MOTION_DDOT":0},{"OBJECT_NAME":"ONEWEB-0242","OBJECT_ID":"2021-045F","EPOCH":"2026-03-19T07:09:29.447136","MEAN_MOTION":13.15548836,"ECCENTRICITY":0.00016765,"INCLINATION":87.8938,"RA_OF_ASC_NODE":277.127,"ARG_OF_PERICENTER":97.5548,"MEAN_ANOMALY":262.5773,"EPHEMERIS_TYPE":0,"CLASSIFICATION_TYPE":"U","NORAD_CAT_ID":48772,"ELEMENT_SET_NO":999,"REV_AT_EPOCH":23260,"BSTAR":0.00030477953,"MEAN_MOTION_DOT":1.28e-6,"MEAN_MOTION_DDOT":0},{"OBJECT_NAME":"ONEWEB-0241","OBJECT_ID":"2021-045G","EPOCH":"2026-03-19T06:51:14.551776","MEAN_MOTION":13.15549009,"ECCENTRICITY":0.00021155,"INCLINATION":87.8926,"RA_OF_ASC_NODE":277.158,"ARG_OF_PERICENTER":92.4928,"MEAN_ANOMALY":267.6445,"EPHEMERIS_TYPE":0,"CLASSIFICATION_TYPE":"U","NORAD_CAT_ID":48773,"ELEMENT_SET_NO":999,"REV_AT_EPOCH":23251,"BSTAR":0.00012347133,"MEAN_MOTION_DOT":5.9e-7,"MEAN_MOTION_DDOT":0},{"OBJECT_NAME":"ONEWEB-0243","OBJECT_ID":"2021-045H","EPOCH":"2026-03-19T05:47:20.525856","MEAN_MOTION":13.15547501,"ECCENTRICITY":0.00018053,"INCLINATION":87.893,"RA_OF_ASC_NODE":277.1783,"ARG_OF_PERICENTER":109.8698,"MEAN_ANOMALY":250.2627,"EPHEMERIS_TYPE":0,"CLASSIFICATION_TYPE":"U","NORAD_CAT_ID":48774,"ELEMENT_SET_NO":999,"REV_AT_EPOCH":23253,"BSTAR":0.00037843326,"MEAN_MOTION_DOT":1.55e-6,"MEAN_MOTION_DDOT":0},{"OBJECT_NAME":"ONEWEB-0222","OBJECT_ID":"2021-045J","EPOCH":"2026-03-19T07:12:55.603584","MEAN_MOTION":13.15548762,"ECCENTRICITY":0.00018325,"INCLINATION":87.8934,"RA_OF_ASC_NODE":277.1271,"ARG_OF_PERICENTER":93.2602,"MEAN_ANOMALY":266.8737,"EPHEMERIS_TYPE":0,"CLASSIFICATION_TYPE":"U","NORAD_CAT_ID":48775,"ELEMENT_SET_NO":999,"REV_AT_EPOCH":23258,"BSTAR":0.00023271085,"MEAN_MOTION_DOT":1.0e-6,"MEAN_MOTION_DDOT":0},{"OBJECT_NAME":"ONEWEB-0244","OBJECT_ID":"2021-045K","EPOCH":"2026-03-19T06:01:02.697888","MEAN_MOTION":13.15548804,"ECCENTRICITY":0.00017646,"INCLINATION":87.8937,"RA_OF_ASC_NODE":277.1275,"ARG_OF_PERICENTER":95.772,"MEAN_ANOMALY":264.3612,"EPHEMERIS_TYPE":0,"CLASSIFICATION_TYPE":"U","NORAD_CAT_ID":48776,"ELEMENT_SET_NO":999,"REV_AT_EPOCH":23314,"BSTAR":0.00017497381,"MEAN_MOTION_DOT":7.9e-7,"MEAN_MOTION_DDOT":0},{"OBJECT_NAME":"ONEWEB-0247","OBJECT_ID":"2021-045L","EPOCH":"2026-03-19T05:56:29.298912","MEAN_MOTION":13.15549025,"ECCENTRICITY":0.0002195,"INCLINATION":87.8929,"RA_OF_ASC_NODE":277.1719,"ARG_OF_PERICENTER":112.4389,"MEAN_ANOMALY":247.6974,"EPHEMERIS_TYPE":0,"CLASSIFICATION_TYPE":"U","NORAD_CAT_ID":48777,"ELEMENT_SET_NO":999,"REV_AT_EPOCH":23258,"BSTAR":7.5799829e-5,"MEAN_MOTION_DOT":4.1e-7,"MEAN_MOTION_DDOT":0},{"OBJECT_NAME":"ONEWEB-0245","OBJECT_ID":"2021-045M","EPOCH":"2026-03-19T05:49:37.793856","MEAN_MOTION":13.15549159,"ECCENTRICITY":0.00018673,"INCLINATION":87.8937,"RA_OF_ASC_NODE":277.1436,"ARG_OF_PERICENTER":88.7395,"MEAN_ANOMALY":271.3949,"EPHEMERIS_TYPE":0,"CLASSIFICATION_TYPE":"U","NORAD_CAT_ID":48778,"ELEMENT_SET_NO":999,"REV_AT_EPOCH":23255,"BSTAR":0.00041532241,"MEAN_MOTION_DOT":1.69e-6,"MEAN_MOTION_DDOT":0},{"OBJECT_NAME":"ONEWEB-0229","OBJECT_ID":"2021-045N","EPOCH":"2026-03-19T05:42:47.304000","MEAN_MOTION":13.1554895,"ECCENTRICITY":0.000165,"INCLINATION":87.8936,"RA_OF_ASC_NODE":277.143,"ARG_OF_PERICENTER":96.5608,"MEAN_ANOMALY":263.571,"EPHEMERIS_TYPE":0,"CLASSIFICATION_TYPE":"U","NORAD_CAT_ID":48779,"ELEMENT_SET_NO":999,"REV_AT_EPOCH":23258,"BSTAR":0.00051266216,"MEAN_MOTION_DOT":2.06e-6,"MEAN_MOTION_DDOT":0},{"OBJECT_NAME":"ONEWEB-0228","OBJECT_ID":"2021-045P","EPOCH":"2026-03-19T06:30:54.984672","MEAN_MOTION":13.15547658,"ECCENTRICITY":0.00017445,"INCLINATION":87.8938,"RA_OF_ASC_NODE":277.1232,"ARG_OF_PERICENTER":93.8202,"MEAN_ANOMALY":266.3127,"EPHEMERIS_TYPE":0,"CLASSIFICATION_TYPE":"U","NORAD_CAT_ID":48780,"ELEMENT_SET_NO":999,"REV_AT_EPOCH":23250,"BSTAR":-0.00029434088,"MEAN_MOTION_DOT":-9.8e-7,"MEAN_MOTION_DDOT":0},{"OBJECT_NAME":"ONEWEB-0232","OBJECT_ID":"2021-045Q","EPOCH":"2026-03-19T05:54:11.910816","MEAN_MOTION":13.15548097,"ECCENTRICITY":0.00016671,"INCLINATION":87.8949,"RA_OF_ASC_NODE":277.1287,"ARG_OF_PERICENTER":91.8788,"MEAN_ANOMALY":268.2534,"EPHEMERIS_TYPE":0,"CLASSIFICATION_TYPE":"U","NORAD_CAT_ID":48781,"ELEMENT_SET_NO":999,"REV_AT_EPOCH":23282,"BSTAR":0.00036512341,"MEAN_MOTION_DOT":1.5e-6,"MEAN_MOTION_DDOT":0},{"OBJECT_NAME":"ONEWEB-0231","OBJECT_ID":"2021-045R","EPOCH":"2026-03-19T07:11:46.766976","MEAN_MOTION":13.15549056,"ECCENTRICITY":0.00018995,"INCLINATION":87.8928,"RA_OF_ASC_NODE":277.1431,"ARG_OF_PERICENTER":95.014,"MEAN_ANOMALY":265.1207,"EPHEMERIS_TYPE":0,"CLASSIFICATION_TYPE":"U","NORAD_CAT_ID":48782,"ELEMENT_SET_NO":999,"REV_AT_EPOCH":23252,"BSTAR":0.00040747077,"MEAN_MOTION_DOT":1.66e-6,"MEAN_MOTION_DDOT":0},{"OBJECT_NAME":"ONEWEB-0234","OBJECT_ID":"2021-045S","EPOCH":"2026-03-19T06:16:47.618400","MEAN_MOTION":13.15546527,"ECCENTRICITY":0.00020608,"INCLINATION":87.893,"RA_OF_ASC_NODE":277.1283,"ARG_OF_PERICENTER":67.8534,"MEAN_ANOMALY":292.2815,"EPHEMERIS_TYPE":0,"CLASSIFICATION_TYPE":"U","NORAD_CAT_ID":48783,"ELEMENT_SET_NO":999,"REV_AT_EPOCH":23265,"BSTAR":-0.00027267003,"MEAN_MOTION_DOT":-9.0e-7,"MEAN_MOTION_DDOT":0}]
